NORAD_CAT_ID,OBJECT_NAME,OBJECT_TYPE,EPOCH,MEAN_MOTION,ECCENTRICITY,INCLINATION,RA_OF_ASC_NODE,ARG_OF_PERICENTER,MEAN_ANOMALY,BSTAR,MEAN_MOTION_DOT,MEAN_MOTION_DDOT,TLE_LINE0,TLE_LINE1,TLE_LINE2,SEMIMAJOR_AXIS,PERIOD,APOGEE,PERIGEE,DECAYED
51741.0,STARLINK-3520,PAYLOAD,2022-03-15 22:00:00,15.73185883,0.0001517,53.2189,29.102,93.0163,175.0558,0.00014984,0.00020447,0.0,0 STARLINK-3520,1 51741U 22016AD  22074.91667824  .00020447  00000-0  14984-3 0  9993,2 51741  53.2189  29.1020 0001517  93.0163 175.0558 15.73185883  4787,6727.935,91.534,350.821,348.78,0.0
51741.0,STARLINK-3520,PAYLOAD,2022-03-16 12:00:00,15.73189268,0.0001281,53.2182,26.2165,87.1953,246.4748,0.00015278,0.00020865,0.0,0 STARLINK-3520,1 51741U 22016AD  22075.50001157  .00020865  00000-0  15278-3 0  9991,2 51741  53.2182  26.2165 0001281  87.1953 246.4748 15.73189268  4872,6727.926,91.534,350.653,348.92900000000014,0.0
51741.0,STARLINK-3520,PAYLOAD,2022-03-16 14:00:01,15.73187281,0.0001258,53.2184,25.8036,92.5996,353.3006,0.00029374,0.00040782,0.0,0 STARLINK-3520,1 51741U 22016AD  22075.58334491  .00040782  00000-0  29374-3 0  9991,2 51741  53.2184  25.8036 0001258  92.5996 353.3006 15.73187281  3683,6727.931,91.534,350.64300000000014,348.95,0.0
51741.0,STARLINK-3520,PAYLOAD,2022-03-16 20:00:01,15.73193875,0.0001302,53.2186,24.5658,99.2379,323.3441,0.00054849,0.00077045,0.0,0 STARLINK-3520,1 51741U 22016AD  22075.83334491  .00077045  00000-0  54849-3 0  9996,2 51741  53.2186  24.5658 0001302  99.2379 323.3441 15.73193875  3686,6727.913000000001,91.534,350.654,348.902,0.0
51741.0,STARLINK-3520,PAYLOAD,2022-03-17 14:00:01,15.73185931,0.0001163,53.2192,20.8552,96.8046,255.9409,2.1251e-05,2.362e-05,0.0,0 STARLINK-3520,1 51741U 22016AD  22076.58334491  .00002362  00000-0  21251-4 0  9991,2 51741  53.2192  20.8552 0001163  96.8046 255.9409 15.73185931  5044,6727.935,91.534,350.583,349.01800000000014,0.0
51741.0,STARLINK-3520,PAYLOAD,2022-03-17 22:00:00,15.73210776,0.0001286999999999,53.2194,19.2057,98.0169,343.6333,0.00023334,0.00032268,0.0,0 STARLINK-3520,1 51741U 22016AD  22076.91667824  .00032268  00000-0  23334-3 0  9998,2 51741  53.2194  19.2057 0001287  98.0169 343.6333 15.73210776  3691,6727.864000000001,91.533,350.595,348.86400000000015,0.0
51741.0,STARLINK-3520,PAYLOAD,2022-03-18 08:00:01,15.7323763,0.0001066,53.2189,17.1456,86.8118,196.0341,-0.00019433,-0.00027846,0.0,0 STARLINK-3520,1 51741U 22016AD  22077.33334491 -.00027846  00000-0 -19433-3 0  9999,2 51741  53.2189  17.1456 0001066  86.8118 196.0341 15.73237630  5160,6727.788000000001,91.531,350.37,348.936,0.0
51741.0,STARLINK-3520,PAYLOAD,2022-03-18 14:00:01,15.73203478,0.0001016,53.2191,15.907,100.2308,159.3428,0.00029639,0.00041186,0.0,0 STARLINK-3520,1 51741U 22016AD  22077.58334491  .00041186  00000-0  29639-3 0  9996,2 51741  53.2191  15.9070 0001016 100.2308 159.3428 15.73203478  3718,6727.885,91.533,350.434,349.06699999999995,0.0
51741.0,STARLINK-3520,PAYLOAD,2022-03-18 22:00:00,15.73252401,0.0001097,53.2187,14.2579,103.7197,244.7923,-0.00059861,-0.00083982,0.0,0 STARLINK-3520,1 51741U 22016AD  22077.91667824 -.00083982  00000-0 -59861-3 0  9994,2 51741  53.2187  14.2579 0001097 103.7197 244.7923 15.73252401  3711,6727.746,91.53,350.349,348.87300000000016,0.0
51741.0,STARLINK-3520,PAYLOAD,2022-03-19 14:00:01,15.7317135,9.01e-05,53.2174,10.9588,104.286,62.0849,0.00039779,0.00055508,0.0,0 STARLINK-3520,1 51741U 22016AD  22078.58334491  .00055508  00000-0  39779-3 0  9996,2 51741  53.2174  10.9588 0000901 104.2860  62.0849 15.73171350  5360,6727.977,91.535,350.4480000000001,349.236,0.0
51741.0,STARLINK-3520,PAYLOAD,2022-03-19 22:00:01,15.73241293,0.0001057,53.2175,9.3097,103.6377,151.7045,-0.00014314,-0.00020694,0.0,0 STARLINK-3520,1 51741U 22016AD  22078.91668981 -.00020694  00000-0 -14314-3 0  9995,2 51741  53.2175   9.3097 0001057 103.6377 151.7045 15.73241293  3723,6727.776999999999,91.531,350.35400000000016,348.931,0.0
51741.0,STARLINK-3520,PAYLOAD,2022-03-20 06:00:00,15.73180599,0.0001159,53.2173,7.6619,89.3345,254.9237,0.0003847,0.0005367,0.0,0 STARLINK-3520,1 51741U 22016AD  22079.25001157  .00053670  00000-0  38470-3 0  9996,2 51741  53.2173   7.6619 0001159  89.3345 254.9237 15.73180599  5463,6727.95,91.534,350.595,349.036,0.0
51741.0,STARLINK-3520,PAYLOAD,2022-03-20 14:00:01,15.73222118,0.0001232,53.2171,6.0105,103.3089,329.8842,0.00010754,0.00014513,0.0,0 STARLINK-3520,1 51741U 22016AD  22079.58334491  .00014513  00000-0  10754-3 0  9990,2 51741  53.2171   6.0105 0001232 103.3089 329.8842 15.73222118  3688,6727.831999999999,91.532,350.526,348.86800000000005,0.0
51741.0,STARLINK-3520,PAYLOAD,2022-03-20 22:00:01,15.73226479,0.0001366,53.2172,4.3615,102.5981,59.6349,5.9975e-05,7.814e-05,0.0,0 STARLINK-3520,1 51741U 22016AD  22079.91668981  .00007814  00000-0  59975-4 0  9996,2 51741  53.2172   4.3615 0001366 102.5981  59.6349 15.73226479  3703,6727.82,91.532,350.60400000000016,348.766,0.0
51741.0,STARLINK-3520,PAYLOAD,2022-03-21 06:00:00,15.73245049,0.0001159,53.217,2.7136,96.1785,154.9459,-1.7392e-05,-3.065e-05,0.0,0 STARLINK-3520,1 51741U 22016AD  22080.25001157 -.00003065  00000-0 -17392-4 0  9994,2 51741  53.2170   2.7136 0001159  96.1785 154.9459 15.73245049  5629,6727.767,91.531,350.411,348.852,0.0
51741.0,STARLINK-3520,PAYLOAD,2022-03-21 14:00:01,15.7318925,9.91e-05,53.2173,1.0618,112.072,228.0414,-0.00016841,-0.00024175,0.0,0 STARLINK-3520,1 51741U 22016AD  22080.58334491 -.00024175  00000-0 -16841-3 0  9992,2 51741  53.2173   1.0618 0000991 112.0720 228.0414 15.73189250  5679,6727.926,91.534,350.458,349.124,0.0
51741.0,STARLINK-3520,PAYLOAD,2022-03-21 22:00:00,15.73199769,9.47e-05,53.2175,359.4131,105.6506,323.3544,-0.00012741,-0.0001846,0.0,0 STARLINK-3520,1 51741U 22016AD  22080.91667824 -.00018460  00000-0 -12741-3 0  9993,2 51741  53.2175 359.4131 0000947 105.6506 323.3544 15.73199769  3691,6727.896,91.533,350.398,349.124,0.0
51741.0,STARLINK-3520,PAYLOAD,2022-03-22 06:00:00,15.73128107,0.0001056,53.217,357.765,89.2248,68.6554,0.00016251,0.00022178,0.0,0 STARLINK-3520,1 51741U 22016AD  22081.25001157  .00022178  00000-0  16251-3 0  9991,2 51741  53.2170 357.7650 0001056  89.2248  68.6554 15.73128107  5785,6728.1,91.537,350.676,349.255,0.0
51741.0,STARLINK-3520,PAYLOAD,2022-03-22 14:00:01,15.73116741,0.0001123,53.2169,356.1136,103.7815,142.9551,0.00057851,0.00081066,0.0,0 STARLINK-3520,1 51741U 22016AD  22081.58334491  .00081066  00000-0  57851-3 0  9999,2 51741  53.2169 356.1136 0001123 103.7815 142.9551 15.73116741  3706,6728.1330000000025,91.538,350.75300000000016,349.242,0.0
51741.0,STARLINK-3520,PAYLOAD,2022-03-22 22:00:01,15.73193042,0.0001146,53.2169,354.4651,102.4095,233.2557,8.758e-05,0.00011685,0.0,0 STARLINK-3520,1 51741U 22016AD  22081.91668981  .00011685  00000-0  87580-4 0  9993,2 51741  53.2169 354.4651 0001146 102.4095 233.2557 15.73193042  3709,6727.915,91.534,350.551,349.009,0.0
51741.0,STARLINK-3520,PAYLOAD,2022-03-23 08:00:01,15.73226775,0.0001067,53.2167,352.4039,96.1355,80.6068,0.00016407,0.00022494,0.0,0 STARLINK-3520,1 51741U 22016AD  22082.33334491  .00022494  00000-0  16407-3 0  9995,2 51741  53.2167 352.4039 0001067  96.1355  80.6068 15.73226775  5955,6727.819,91.532,350.402,348.966,0.0
51741.0,STARLINK-3520,PAYLOAD,2022-03-23 14:00:01,15.73238989,0.0001142,53.2169,351.1651,106.7487,46.7221,0.00017055,0.00023422,0.0,0 STARLINK-3520,1 51741U 22016AD  22082.58334491  .00023422  00000-0  17055-3 0  9994,2 51741  53.2169 351.1651 0001142 106.7487  46.7221 15.73238989  3694,6727.784000000002,91.531,350.417,348.881,0.0
51741.0,STARLINK-3520,PAYLOAD,2022-03-23 22:00:00,15.73233709,0.0001313,53.2172,349.5165,98.8249,143.6368,4.6481e-05,5.917e-05,0.0,0 STARLINK-3520,1 51741U 22016AD  22082.91667824  .00005917  00000-0  46481-4 0  9995,2 51741  53.2172 349.5165 0001313  98.8249 143.6368 15.73233709  3702,6727.799,91.531,350.547,348.781,0.0
51741.0,STARLINK-3520,PAYLOAD,2022-03-24 06:00:00,15.73271608,0.0001091,53.2168,347.8677,92.4839,238.9429,-0.00023772,-0.00033949,0.0,0 STARLINK-3520,1 51741U 22016AD  22083.25001157 -.00033949  00000-0 -23772-3 0  9999,2 51741  53.2168 347.8677 0001091  92.4839 238.9429 15.73271608  6095,6727.691,91.529,350.29,348.82199999999995,0.0
51741.0,STARLINK-3520,PAYLOAD,2022-03-24 14:00:01,15.73222051,9.18e-05,53.2168,346.216,114.9388,305.5038,-3.8232e-05,-5.986e-05,0.0,0 STARLINK-3520,1 51741U 22016AD  22083.58334491 -.00005986  00000-0 -38232-4 0  9993,2 51741  53.2168 346.2160 0000918 114.9388 305.5038 15.73222051  3688,6727.831999999999,91.532,350.315,349.08,0.0
51741.0,STARLINK-3520,PAYLOAD,2022-03-24 22:00:00,15.7322169,8.32e-05,53.2169,344.5678,107.6865,41.6912,-8.594299999999999e-05,-0.00012673,0.0,0 STARLINK-3520,1 51741U 22016AD  22083.91667824 -.00012673  00000-0 -85943-4 0  9991,2 51741  53.2169 344.5678 0000832 107.6865  41.6912 15.73221690  3708,6727.833000000001,91.532,350.2580000000001,349.139,0.0
51741.0,STARLINK-3520,PAYLOAD,2022-03-25 12:00:00,15.73202192,0.0001069,53.2172,341.68,106.6792,108.3482,-0.0003775,-0.00053268,0.0,0 STARLINK-3520,1 51741U 22016AD  22084.50001157 -.00053268  00000-0 -37750-3 0  9995,2 51741  53.2172 341.6800 0001069 106.6792 108.3482 15.73202192  6294,6727.889,91.533,350.473,349.035,0.0
51741.0,STARLINK-3520,PAYLOAD,2022-03-25 14:00:01,15.73164453,0.0001142,53.217,341.2672,109.0667,218.2015,8.4568e-05,0.00011247,0.0,0 STARLINK-3520,1 51741U 22016AD  22084.58334491  .00011247  00000-0  84568-4 0  9992,2 51741  53.2170 341.2672 0001142 109.0667 218.2015 15.73164453  3696,6727.996999999999,91.535,350.63,349.093,0.0
51741.0,STARLINK-3520,PAYLOAD,2022-03-25 20:00:01,15.73176957,0.0001267,53.2174,340.031,104.3179,199.6133,0.00013304,0.00018073,0.0,0 STARLINK-3520,1 51741U 22016AD  22084.83334491  .00018073  00000-0  13304-3 0  9993,2 51741  53.2174 340.0310 0001267 104.3179 199.6133 15.73176957  6340,6727.9609999999975,91.535,350.67800000000005,348.973,0.0
